NORAD_CAT_ID,OBJECT_NAME,OBJECT_TYPE,EPOCH,MEAN_MOTION,ECCENTRICITY,INCLINATION,RA_OF_ASC_NODE,ARG_OF_PERICENTER,MEAN_ANOMALY,BSTAR,MEAN_MOTION_DOT,MEAN_MOTION_DDOT,TLE_LINE0,TLE_LINE1,TLE_LINE2,SEMIMAJOR_AXIS,PERIOD,APOGEE,PERIGEE,DECAYED
51991.0,STARLINK-3652,PAYLOAD,2023-03-05 22:04:25,15.08849265,0.000141,53.2144,296.1848,78.8102,281.3048,0.0020359,0.0003227,0.0,0 STARLINK-3652,1 51991U 22025AM  23064.91974305  .00032270  00000-0  20359-2 0  9994,2 51991  53.2144 296.1848 0001410  78.8102 281.3048 15.08849265 55033,6917.852,95.437,540.692,538.742,0.0
51991.0,STARLINK-3652,PAYLOAD,2023-03-06 01:15:11,15.08872584,0.0001395,53.2143,295.5906,74.2531,285.8615,0.0021154,0.00033569,0.0,0 STARLINK-3652,1 51991U 22025AM  23065.05221828  .00033569  00000-0  21154-2 0  9991,2 51991  53.2143 295.5906 0001395  74.2531 285.8615 15.08872584 56140,6917.781,95.435,540.611,538.681,0.0
51991.0,STARLINK-3652,PAYLOAD,2023-03-06 21:55:12,15.08852346,0.000188,53.2148,291.7214,85.7683,274.3524,0.0011804,0.00018554,0.0,0 STARLINK-3652,1 51991U 22025AM  23065.91334119  .00018554  00000-0  11804-2 0  9992,2 51991  53.2148 291.7214 0001880  85.7683 274.3524 15.08852346 55188,6917.843,95.437,541.008,538.407,0.0
51991.0,STARLINK-3652,PAYLOAD,2023-03-07 05:52:08,15.08854319,0.0001421,53.2133,290.2336,81.9562,278.1591,0.00075834,0.00011806,0.0,0 STARLINK-3652,1 51991U 22025AM  23066.24453852  .00011806  00000-0  75834-3 0  9992,2 51991  53.2133 290.2336 0001421  81.9562 278.1591 15.08854319 56321,6917.837,95.437,540.685,538.719,0.0
51991.0,STARLINK-3652,PAYLOAD,2023-03-07 15:24:27,15.08827456,0.0001132,53.2133,288.4536,80.6172,279.4948,0.0018134,0.0002868,0.0,0 STARLINK-3652,1 51991U 22025AM  23066.64198204  .00028680  00000-0  18134-2 0  9990,2 51991  53.2133 288.4536 0001132  80.6172 279.4948 15.08827456 56382,6917.919,95.438,540.567,539.001,0.0
51991.0,STARLINK-3652,PAYLOAD,2023-03-07 21:45:59,15.0885306,0.0001186,53.2131,287.2644,78.5173,281.5953,0.0017631,0.00027893,0.0,0 STARLINK-3652,1 51991U 22025AM  23066.90694031  .00027893  00000-0  17631-2 0  9994,2 51991  53.2131 287.2644 0001186  78.5173 281.5953 15.08853060 55337,6917.84,95.437,540.526,538.885,0.0
51991.0,STARLINK-3652,PAYLOAD,2023-03-08 00:56:45,15.08862897,0.0001158,53.2129,286.6695,76.5375,283.5746,0.0021306,0.00033805,0.0,0 STARLINK-3652,1 51991U 22025AM  23067.03941881  .00033805  00000-0  21306-2 0  9991,2 51991  53.2129 286.6695 0001158  76.5375 283.5746 15.08862897 56447,6917.81,95.436,540.476,538.874,0.0
51991.0,STARLINK-3652,PAYLOAD,2023-03-08 23:12:10,15.08862257,0.000107,53.2138,282.5052,99.6514,260.4599,0.0027895,0.00044414,0.0,0 STARLINK-3652,1 51991U 22025AM  23067.96678436  .00044414  00000-0  27895-2 0  9993,2 51991  53.2138 282.5052 0001070  99.6514 260.4599 15.08862257 56588,6917.812,95.436,540.418,538.937,0.0
51991.0,STARLINK-3652,PAYLOAD,2023-03-09 19:52:11,15.08846008,0.0001591,53.2137,278.6396,58.3969,301.7179,0.0012536,0.00019723,0.0,0 STARLINK-3652,1 51991U 22025AM  23068.82790577  .00019723  00000-0  12536-2 0  9991,2 51991  53.2137 278.6396 0001591  58.3969 301.7179 15.08846008 56712,6917.862,95.437,540.828,538.626,0.0
51991.0,STARLINK-3652,PAYLOAD,2023-03-09 21:27:34,15.08852723,0.0001416,53.2139,278.3409,72.191,287.9236,0.00072921,0.0001134,0.0,0 STARLINK-3652,1 51991U 22025AM  23068.89414354  .00011340  00000-0  72921-3 0  9996,2 51991  53.2139 278.3409 0001416  72.1910 287.9236 15.08852723 55632,6917.842,95.437,540.686,538.727,0.0
51991.0,STARLINK-3652,PAYLOAD,2023-03-10 06:59:52,15.08844678,0.0001006,53.2135,276.5567,99.6493,260.4613,0.00064128,9.934e-05,0.0,0 STARLINK-3652,1 51991U 22025AM  23069.29158274  .00009934  00000-0  64128-3 0  9993,2 51991  53.2135 276.5567 0001006  99.6493 260.4613 15.08844678 56780,6917.866,95.437,540.427,539.035,0.0
51991.0,STARLINK-3652,PAYLOAD,2023-03-10 19:42:58,15.08834807,0.0001046,53.213,274.1777,105.6457,254.465,0.0002532,3.744e-05,0.0,0 STARLINK-3652,1 51991U 22025AM  23069.82150588  .00003744  00000-0  25320-3 0  9996,2 51991  53.2130 274.1777 0001046 105.6457 254.4650 15.08834807 56860,6917.896,95.438,540.485,539.038,0.0
51991.0,STARLINK-3652,PAYLOAD,2023-03-10 21:18:21,15.08840763,0.0001146,53.2138,273.8797,98.9559,261.1563,0.00027118,4.031e-05,0.0,0 STARLINK-3652,1 51991U 22025AM  23069.88774538  .00004031  00000-0  27118-3 0  9996,2 51991  53.2138 273.8797 0001146  98.9559 261.1563 15.08840763 55780,6917.878,95.438,540.536,538.95,0.0
51991.0,STARLINK-3652,PAYLOAD,2023-03-11 22:44:31,15.0884429,0.0001183,53.2145,269.1217,94.4802,265.6325,0.00053911,8.303e-05,0.0,0 STARLINK-3652,1 51991U 22025AM  23070.94758961  .00008303  00000-0  53911-3 0  9993,2 51991  53.2145 269.1217 0001183  94.4802 265.6325 15.08844290 57030,6917.867,95.437,540.551,538.914,0.0
51991.0,STARLINK-3652,PAYLOAD,2023-03-12 13:03:00,15.08844418,0.0001274,53.2149,266.4455,81.1576,278.9561,0.00039989,6.083e-05,0.0,0 STARLINK-3652,1 51991U 22025AM  23071.54375107  .00006083  00000-0  39989-3 0  9999,2 51991  53.2149 266.4455 0001274  81.1576 278.9561 15.08844418 56030,6917.867,95.437,540.613,538.851,0.0
51991.0,STARLINK-3652,PAYLOAD,2023-03-12 22:35:18,15.08853501,0.0001633,53.2146,264.6628,75.8676,284.2497,0.00058158,8.983e-05,0.0,0 STARLINK-3652,1 51991U 22025AM  23071.94118789  .00008983  00000-0  58158-3 0  9994,2 51991  53.2146 264.6628 0001633  75.8676 284.2497 15.08853501 56096,6917.839,95.437,540.834,538.574,0.0
51991.0,STARLINK-3652,PAYLOAD,2023-03-13 22:26:05,15.0884037,0.0001018,53.2144,260.1994,120.4402,239.6691,0.00018279,2.623e-05,0.0,0 STARLINK-3652,1 51991U 22025AM  23072.93478831  .00002623  00000-0  18279-3 0  9996,2 51991  53.2144 260.1994 0001018 120.4402 239.6691 15.08840370 57330,6917.879,95.438,540.448,539.04,0.0
51991.0,STARLINK-3652,PAYLOAD,2023-03-14 19:06:06,15.08854456,0.0001377,53.215,256.3342,91.5632,268.5518,0.00057538,8.885e-05,0.0,0 STARLINK-3652,1 51991U 22025AM  23073.79590724  .00008885  00000-0  57538-3 0  9994,2 51991  53.2150 256.3342 0001377  91.5632 268.5518 15.08854456 56374,6917.836,95.437,540.654,538.749,0.0
51991.0,STARLINK-3652,PAYLOAD,2023-03-15 04:38:25,15.08846306,0.0001704,53.2153,254.5492,84.9525,275.1661,0.00051989,7.997e-05,0.0,0 STARLINK-3652,1 51991U 22025AM  23074.19334604  .00007997  00000-0  51989-3 0  9999,2 51991  53.2153 254.5492 0001704  84.9525 275.1661 15.08846306 57520,6917.861,95.437,540.905,538.547,0.0
51991.0,STARLINK-3652,PAYLOAD,2023-03-15 20:32:15,15.08864754,0.0001739,53.2149,251.5756,77.2576,282.861,0.00050529,7.768e-05,0.0,0 STARLINK-3652,1 51991U 22025AM  23074.85573727  .00007768  00000-0  50529-3 0  9998,2 51991  53.2149 251.5756 0001739  77.2576 282.8610 15.08864754 56530,6917.805,95.436,540.873,538.467,0.0
51991.0,STARLINK-3652,PAYLOAD,2023-03-16 04:29:11,15.08840078,0.000255,53.2173,250.0898,81.0965,279.0316,-0.00022401,-3.852e-05,0.0,0 STARLINK-3652,1 51991U 22025AM  23075.18694112 -.00003852  00000-0 -22401-3 0  9997,2 51991  53.2173 250.0898 0002550  81.0965 279.0316 15.08840078 57675,6917.88,95.438,541.509,537.981,0.0
51991.0,STARLINK-3652,PAYLOAD,2023-03-16 14:01:30,15.08818739,7.18e-05,53.2144,248.3048,115.5089,244.5977,-0.0010296,-0.00016626,0.0,0 STARLINK-3652,1 51991U 22025AM  23075.58438609 -.00016626  00000-0 -10296-2 0  9999,2 51991  53.2144 248.3048 0000718 115.5089 244.5977 15.08818739 57730,6917.945,95.439,540.307,539.314,0.0
51991.0,STARLINK-3652,PAYLOAD,2023-03-16 20:23:03,15.08822413,0.0001378,53.2106,247.1155,87.6539,272.4611,-0.00048453,-7.987e-05,0.0,0 STARLINK-3652,1 51991U 22025AM  23075.84934935 -.00007987  00000-0 -48453-3 0  9998,2 51991  53.2106 247.1155 0001378  87.6539 272.4611 15.08822413 56688,6917.934,95.439,540.752,538.846,0.0
51991.0,STARLINK-3652,PAYLOAD,2023-03-17 10:41:32,15.08830336,0.0001351,53.2139,244.4403,96.2001,263.9145,0.00080044,0.00012471,0.0,0 STARLINK-3652,1 51991U 22025AM  23076.44551673  .00012471  00000-0  80044-3 0  9993,2 51991  53.2139 244.4403 0001351  96.2001 263.9145 15.08830336 57862,6917.91,95.438,540.71,538.84,0.0
51991.0,STARLINK-3652,PAYLOAD,2023-03-17 20:13:51,15.08848392,0.0001315,53.2132,242.6566,95.2542,264.86,0.0010019,0.00015697,0.0,0 STARLINK-3652,1 51991U 22025AM  23076.84295490  .00015697  00000-0  10019-2 0  9996,2 51991  53.2132 242.6566 0001315  95.2542 264.8600 15.08848392 56837,6917.855,95.437,540.629,538.81,0.0
51991.0,STARLINK-3652,PAYLOAD,2023-03-17 23:24:37,15.08854128,0.000133,53.2129,242.0613,93.5555,266.5589,0.0010449,0.00016387,0.0,0 STARLINK-3652,1 51991U 22025AM  23076.97543355  .00016387  00000-0  10449-2 0  9990,2 51991  53.2129 242.0613 0001330  93.5555 266.5589 15.08854128 57944,6917.837,95.437,540.622,538.782,0.0
51991.0,STARLINK-3652,PAYLOAD,2023-03-18 04:10:46,15.08848359,4.1e-05,53.2161,241.1689,247.0442,113.0507,0.00025953,3.846e-05,0.0,0 STARLINK-3652,1 51991U 22025AM  23077.17414785  .00003846  00000-0  25953-3 0  9990,2 51991  53.2161 241.1689 0000410 247.0442 113.0507 15.08848359 57970,6917.855,95.437,540.003,539.436,0.0
51991.0,STARLINK-3652,PAYLOAD,2023-03-18 16:53:51,15.08860249,0.0001319,53.2126,238.7898,87.6264,272.488,0.00090842,0.00014207,0.0,0 STARLINK-3652,1 51991U 22025AM  23077.70407141  .00014207  00000-0  90842-3 0  9999,2 51991  53.2126 238.7898 0001319  87.6264 272.4880 15.08860249 56968,6917.818,95.436,540.596,538.771,0.0
51991.0,STARLINK-3652,PAYLOAD,2023-03-19 04:01:33,15.08855157,0.0001561,53.2124,236.7078,90.0099,270.1072,0.00061142,9.46e-05,0.0,0 STARLINK-3652,1 51991U 22025AM  23078.16775031  .00009460  00000-0  61142-3 0  9992,2 51991  53.2124 236.7078 0001561  90.0099 270.1072 15.08855157 57036,6917.834,95.437,540.779,538.619,0.0
51991.0,STARLINK-3652,PAYLOAD,2023-03-19 19:55:24,15.08852402,0.0001418,53.2146,233.733,97.9731,262.1422,0.00043017,6.567e-05,0.0,0 STARLINK-3652,1 51991U 22025AM  23078.83014855  .00006567  00000-0  43017-3 0  9992,2 51991  53.2146 233.7330 0001418  97.9731 262.1422 15.08852402 58220,6917.842,95.437,540.688,538.727,0.0
